CUTE-1 (CO-55)          
1 27844U 03031E   26165.50824594  .00000252  00000+0  12810-3 0  9992
2 27844  98.6736 174.1008 0009350 185.7557 174.3516 14.24334231191298
CUBESAT XI-IV (CO-57)   
1 27848U 03031J   26165.28450992  .00000215  00000+0  11362-3 0  9998
2 27848  98.6766 173.5948 0008829 205.9293 154.1445 14.23619426190964
CUBESAT XI-V            
1 28895U 05043F   26165.41295821  .00001277  00000+0  20872-3 0  9994
2 28895  98.2981 320.9765 0013477 209.8611 150.1828 14.72624914101346
CUTE-1.7+APD II (CO-65) 
1 32785U 08021C   26165.59713032  .00004312  00000+0  27344-3 0  9998
2 32785  97.8270 146.9618 0010105  47.3580 312.8498 15.09431607984809
CANX-2                  
1 32790U 08021H   26165.49693286  .00004312  00000+0  30315-3 0  9993
2 32790  97.8624 145.2217 0011481  58.4901 301.7445 15.05597055984404
SEEDS II (CO-66)        
1 32791U 08021J   26165.52414191  .00017043  00000+0  54220-3 0  9990
2 32791  97.7508 163.2945 0001462  13.0182 347.1096 15.32671054986881
SWISSCUBE               
1 35932U 09051B   26165.22670745  .00000895  00000+0  18634-3 0  9996
2 35932  98.4040  73.0633 0005786 213.5244 146.5592 14.62476649888722
BEESAT-1                
1 35933U 09051C   26165.57686896  .00000734  00000+0  15709-3 0  9991
2 35933  98.3967  73.0606 0004089 227.0338 133.0520 14.61716764888804
ITUPSAT1                
1 35935U 09051E   26165.22290826  .00000683  00000+0  15098-3 0  9993
2 35935  98.4052  71.8963 0006164 244.9503 115.1057 14.60436749888304
TISAT 1                 
1 36799U 10035E   26165.56923523  .00018412  00000+0  60504-3 0  9991
2 36799  98.0712 111.8862 0001072 170.4238 189.7022 15.31621496867306
AEROCUBE 4.5A           
1 38767U 12048K   26165.02704566  .00447572  86007-4  12066-2 0  9997
2 38767  64.6249  38.4390 0019788 221.2160 138.7509 15.93706393372155
STRAND-1                
1 39090U 13009E   26165.48000094  .00000242  00000+0  95730-4 0  9994
2 39090  98.3921 345.7811 0007605 234.4727 125.5751 14.37161905696678
BRITE-AUSTRIA           
1 39091U 13009F   26165.49170768  .00000150  00000+0  65713-4 0  9998
2 39091  98.3993 344.9942 0009057 245.5657 114.4585 14.36541132696666
NEE-01 PEGASO           
1 39151U 13018B   26165.31799982  .00002150  00000+0  20906-3 0  9997
2 39151  98.1215 309.3736 0012835 168.5620 191.5892 14.93647786710272
POPACS 2                
1 39269U 13055E   26165.22389900  .00013658  00000+0  23173-3 0  9997
2 39269  80.9900 147.5841 0416875 203.2966 154.8876 14.91145737662775
POPACS 3                
1 39270U 13055F   26165.43956131  .00009551  00000+0  22441-3 0  9992
2 39270  81.0022 232.1657 0552393  78.3550 287.9078 14.56079271638153
ZACUBE-1 (TSHEPISOSAT)  
1 39417U 13066B   26165.47443580  .00003221  00000+0  25184-3 0  9995
2 39417  97.8083 127.7968 0040509 257.1667 102.5029 15.01175277680327
WNISAT-1                
1 39423U 13066H   26165.39742405  .00000729  00000+0  14167-3 0  9990
2 39423  97.7198 314.7518 0161851 240.4432 118.0552 14.58058021666323
TRITON-1                
1 39427U 13066M   26165.59435914  .00002208  00000+0  26897-3 0  9997
2 39427  97.8256  75.4604 0088380 242.4889 116.7322 14.81700245673701
GOMX-1                  
1 39430U 13066Q   26165.59841078  .00002505  00000+0  37875-3 0  9991
2 39430  97.6484   6.2252 0130209  85.7861 275.8214 14.69453911669537
CUBEBUG-2 (LO-74)       
1 39440U 13066AA  26165.58468701  .00004184  00000+0  38757-3 0  9994
2 39440  97.8903 114.5518 0058575  37.4286 323.0990 14.93741894676604
NEE-02 KRYSAOR          
1 39441U 13066AB  26165.58418624  .00002324  00000+0  25763-3 0  9991
2 39441  97.8892 104.8174 0067699  78.5405 282.3403 14.86608022675813
FUNCUBE-1 (AO-73)       
1 39444U 13066AE  26165.47123696  .00006880  00000+0  42769-3 0  9990
2 39444  97.8269 136.8603 0035410 210.5774 149.3391 15.09460207679256
UWE-3                   
1 39446U 13066AG  26165.40834477  .00004185  00000+0  36061-3 0  9995
2 39446  97.8691 121.4633 0048023 330.3951  29.4552 14.97004771677163
BRITE-CA1 (TORONTO)     
1 40020U 14033L   26165.32000207  .00000628  00000+0  10220-3 0  9994
2 40020  97.9735 294.3008 0077274 286.3637  72.9085 14.72673070641791
DUCHIFAT-1              
1 40021U 14033M   26165.14309872  .00112865  00000+0  11822-2 0  9990
2 40021  98.0474 223.8762 0003417 119.3968 240.7631 15.64039026655277
NANOSATC-BR1            
1 40024U 14033Q   26165.59181314  .00015703  00000+0  52030-3 0  9991
2 40024  98.0719 197.7493 0004179 169.8700 190.2624 15.31384789653588
QB50P1                  
1 40025U 14033R   26165.57970422  .00007974  00000+0  39301-3 0  9993
2 40025  98.0959 176.5426 0007615 225.5920 134.4689 15.18225531652638
QB50P2                  
1 40032U 14033Y   26165.52447236  .00006365  00000+0  34336-3 0  9994
2 40032  98.0744 162.2389 0007744 171.6333 188.5028 15.15128687652267
PERSEUS-M2              
1 40037U 14033AD  26165.65443954  .00001292  00000+0  12213-3 0  9990
2 40037  97.9955 116.1434 0011005 313.3740  46.6563 14.95501872650405
